COMMENT,ORIGINATOR,NORAD_CAT_ID,OBJECT_NAME,OBJECT_TYPE,CLASSIFICATION_TYPE,INTLDES,EPOCH,EPOCH_MICROSECONDS,MEAN_MOTION,ECCENTRICITY,INCLINATION,RA_OF_ASC_NODE,ARG_OF_PERICENTER,MEAN_ANOMALY,EPHEMERIS_TYPE,ELEMENT_SET_NO,REV_AT_EPOCH,BSTAR,MEAN_MOTION_DOT,MEAN_MOTION_DDOT,FILE,TLE_LINE0,TLE_LINE1,TLE_LINE2,OBJECT_ID,OBJECT_NUMBER,SEMIMAJOR_AXIS,PERIOD,APOGEE,PERIGEE,DECAYED
GENERATED VIA SPACETRACK.ORG API,18 SPCS,52365,STARLINK-3874,PAYLOAD,U,22045AL,2023-10-12 22:04:15,210336,15.08848568,0.0001702,53.2164,174.0707,91.8096,268.3091,0,999,8325,0.00032407,4.874e-05,0,4032297,0 STARLINK-3874,1 52365U 22045AL  23285.91962049  .00004874  00000-0  32407-3 0  9996,2 52365  53.2164 174.0707 0001702  91.8096 268.3091 15.08848568 83253,2022-045AL,52365,6917.854,95.437,540.897,538.542,0
GENERATED VIA SPACETRACK.ORG API,18 SPCS,52365,STARLINK-3874,PAYLOAD,U,22045AL,2023-10-12 23:39:38,183040,15.08855317,0.0001539,53.2162,173.7773,86.7726,273.3442,0,999,8326,0.00046226,7.08e-05,0,4032563,0 STARLINK-3874,1 52365U 22045AL  23285.98585860  .00007080  00000-0  46226-3 0  9991,2 52365  53.2162 173.7773 0001539  86.7726 273.3442 15.08855317 83268,2022-045AL,52365,6917.834,95.437,540.763,538.634,0
GENERATED VIA SPACETRACK.ORG API,18 SPCS,52365,STARLINK-3874,PAYLOAD,U,22045AL,2023-10-13 09:11:56,857344,15.08850565,0.0001478,53.2166,171.9931,88.7921,271.324,0,999,8332,0.00039253,5.966e-05,0,4032884,0 STARLINK-3874,1 52365U 22045AL  23286.38329696  .00005966  00000-0  39253-3 0  9992,2 52365  53.2166 171.9931 0001478  88.7921 271.3240 15.08850565 83320,2022-045AL,52365,6917.848,95.437,540.736,538.691,0
GENERATED VIA SPACETRACK.ORG API,18 SPCS,52365,STARLINK-3874,PAYLOAD,U,22045AL,2023-10-13 09:11:56,857344,15.08850565,0.0001478,53.2166,171.9931,88.7921,271.324,0,999,8332,0.00039253,5.966e-05,0,4032919,0 STARLINK-3874,1 52365U 22045AL  23286.38329696  .00005966  00000-0  39253-3 0  9992,2 52365  53.2166 171.9931 0001478  88.7921 271.3240 15.08850565 83320,2022-045AL,52365,6917.848,95.437,540.736,538.691,0
GENERATED VIA SPACETRACK.ORG API,18 SPCS,52365,STARLINK-3874,PAYLOAD,U,22045AL,2023-10-13 20:19:38,972640,15.08842378,0.0001471,53.2165,169.9114,77.9116,282.2041,0,999,8339,3.4351e-05,2.59e-06,0,4033150,0 STARLINK-3874,1 52365U 22045AL  23286.84697885  .00000259  00000-0  34351-4 0  9996,2 52365  53.2165 169.9114 0001471  77.9116 282.2041 15.08842378 83398,2022-045AL,52365,6917.873,95.437,540.756,538.721,0
GENERATED VIA SPACETRACK.ORG API,18 SPCS,52365,STARLINK-3874,PAYLOAD,U,22045AL,2023-10-13 21:55:02,116416,15.08843645,0.0001517,53.2157,169.6138,77.7911,282.3251,0,999,8340,0.00012389,1.684e-05,0,4033175,0 STARLINK-3874,1 52365U 22045AL  23286.91321894  .00001684  00000-0  12389-3 0  9997,2 52365  53.2157 169.6138 0001517  77.7911 282.3251 15.08843645 83408,2022-045AL,52365,6917.869,95.437,540.784,538.685,0
GENERATED VIA SPACETRACK.ORG API,18 SPCS,52365,STARLINK-3874,PAYLOAD,U,22045AL,2023-10-14 01:05:48,174144,15.08854971,0.0001456,53.2158,169.0194,81.3831,278.7326,0,999,8342,0.0010625,0.00016669,0,4033482,0 STARLINK-3874,1 52365U 22045AL  23287.04569646  .00016669  00000-0  10625-2 0  9990,2 52365  53.2158 169.0194 0001456  81.3831 278.7326 15.08854971 83427,2022-045AL,52365,6917.835,95.437,540.707,538.692,0
GENERATED VIA SPACETRACK.ORG API,18 SPCS,52365,STARLINK-3874,PAYLOAD,U,22045AL,2023-10-14 09:02:44,189376,15.08838507,0.0001529,53.2158,167.5317,88.1233,271.9935,0,999,8347,0.00020773,3.019e-05,0,4033793,0 STARLINK-3874,1 52365U 22045AL  23287.37690034  .00003019  00000-0  20773-3 0  9993,2 52365  53.2158 167.5317 0001529  88.1233 271.9935 15.08838507 83472,2022-045AL,52365,6917.885,95.438,540.808,538.692,0
GENERATED VIA SPACETRACK.ORG API,18 SPCS,52365,STARLINK-3874,PAYLOAD,U,22045AL,2023-10-14 09:02:44,189376,15.08838507,0.0001529,53.2158,167.5317,88.1233,271.9935,0,999,8347,0.00020773,3.019e-05,0,4033811,0 STARLINK-3874,1 52365U 22045AL  23287.37690034  .00003019  00000-0  20773-3 0  9993,2 52365  53.2158 167.5317 0001529  88.1233 271.9935 15.08838507 83472,2022-045AL,52365,6917.885,95.438,540.808,538.692,0
GENERATED VIA SPACETRACK.ORG API,18 SPCS,52365,STARLINK-3874,PAYLOAD,U,22045AL,2023-10-14 20:10:26,454144,15.08827583,0.0001079,53.2161,165.4521,104.0414,256.0698,0,999,8354,5.1579e-06,-2.06e-06,0,4034086,0 STARLINK-3874,1 52365U 22045AL  23287.84058396 -.00000206  00000-0  51579-5 0  9990,2 52365  53.2161 165.4521 0001079 104.0414 256.0698 15.08827583 83549,2022-045AL,52365,6917.918,95.438,540.53,539.037,0
GENERATED VIA SPACETRACK.ORG API,18 SPCS,52365,STARLINK-3874,PAYLOAD,U,22045AL,2023-10-14 21:45:49,682592,15.08827634,0.0001304,53.2149,165.1561,104.1558,255.9579,0,999,8355,-3.0149e-05,-7.67e-06,0,4034164,0 STARLINK-3874,1 52365U 22045AL  23287.90682503 -.00000767  00000-0 -30149-4 0  9992,2 52365  53.2149 165.1561 0001304 104.1558 255.9579 15.08827634 83551,2022-045AL,52365,6917.918,95.438,540.685,538.881,0
GENERATED VIA SPACETRACK.ORG API,18 SPCS,52365,STARLINK-3874,PAYLOAD,U,22045AL,2023-10-15 08:53:31,741728,15.08838442,0.0001517,53.2151,163.0712,90.8268,269.2898,0,999,8362,0.00022088,3.229e-05,0,4034743,0 STARLINK-3874,1 52365U 22045AL  23288.37050627  .00003229  00000-0  22088-3 0  9996,2 52365  53.2151 163.0712 0001517  90.8268 269.2898 15.08838442 83623,2022-045AL,52365,6917.885,95.438,540.8,538.701,0
GENERATED VIA SPACETRACK.ORG API,18 SPCS,52365,STARLINK-3874,PAYLOAD,U,22045AL,2023-10-15 08:53:31,741728,15.08838442,0.0001517,53.2151,163.0712,90.8268,269.2898,0,999,8362,0.00022088,3.229e-05,0,4034787,0 STARLINK-3874,1 52365U 22045AL  23288.37050627  .00003229  00000-0  22088-3 0  9996,2 52365  53.2151 163.0712 0001517  90.8268 269.2898 15.08838442 83623,2022-045AL,52365,6917.885,95.438,540.8,538.701,0
GENERATED VIA SPACETRACK.ORG API,18 SPCS,52365,STARLINK-3874,PAYLOAD,U,22045AL,2023-10-15 21:36:36,973152,15.088415,0.0001365,53.2146,160.6937,94.5875,265.5273,0,999,8370,0.00045296,6.929e-05,0,4035078,0 STARLINK-3874,1 52365U 22045AL  23288.90042793  .00006929  00000-0  45296-3 0  9996,2 52365  53.2146 160.6937 0001365  94.5875 265.5273 15.08841500 83709,2022-045AL,52365,6917.876,95.437,540.685,538.797,0
GENERATED VIA SPACETRACK.ORG API,18 SPCS,52365,STARLINK-3874,PAYLOAD,U,22045AL,2023-10-16 15:05:51,457056,15.08843989,0.0001421,53.214,157.4219,86.8183,273.2971,0,999,8381,0.00027654,4.116e-05,0,4036830,0 STARLINK-3874,1 52365U 22045AL  23289.62906779  .00004116  00000-0  27654-3 0  9993,2 52365  53.2140 157.4219 0001421  86.8183 273.2971 15.08843989 83815,2022-045AL,52365,6917.868,95.437,540.716,538.75,0
GENERATED VIA SPACETRACK.ORG API,18 SPCS,52365,STARLINK-3874,PAYLOAD,U,22045AL,2023-10-16 18:16:37,771392,15.08843884,0.000144,53.2142,156.827,87.8554,272.2603,0,999,8383,0.0002825,4.211e-05,0,4037168,0 STARLINK-3874,1 52365U 22045AL  23289.76154828  .00004211  00000-0  28250-3 0  9997,2 52365  53.2142 156.8270 0001440  87.8554 272.2603 15.08843884 83838,2022-045AL,52365,6917.869,95.437,540.73,538.737,0
GENERATED VIA SPACETRACK.ORG API,18 SPCS,52365,STARLINK-3874,PAYLOAD,U,22045AL,2023-10-16 18:16:37,771392,15.08843884,0.000144,53.2142,156.827,87.8554,272.2603,0,999,8383,0.0002825,4.211e-05,0,4037312,0 STARLINK-3874,1 52365U 22045AL  23289.76154828  .00004211  00000-0  28250-3 0  9997,2 52365  53.2142 156.8270 0001440  87.8554 272.2603 15.08843884 83838,2022-045AL,52365,6917.869,95.437,540.73,538.737,0
GENERATED VIA SPACETRACK.ORG API,18 SPCS,52365,STARLINK-3874,PAYLOAD,U,22045AL,2023-10-17 08:35:05,814816,15.08843597,0.000141,53.2145,154.149,93.8866,266.2287,0,999,8392,0.00015547,2.187e-05,0,4039107,0 STARLINK-3874,1 52365U 22045AL  23290.35770619  .00002187  00000-0  15547-3 0  9991,2 52365  53.2145 154.1490 0001410  93.8866 266.2287 15.08843597 83928,2022-045AL,52365,6917.869,95.437,540.71,538.759,0
GENERATED VIA SPACETRACK.ORG API,18 SPCS,52365,STARLINK-3874,PAYLOAD,U,22045AL,2023-10-17 21:18:10,862208,15.08845906,0.0001486,53.2141,151.772,94.9581,265.158,0,999,8400,0.00019486,2.815e-05,0,4040071,0 STARLINK-3874,1 52365U 22045AL  23290.88762572  .00002815  00000-0  19486-3 0  9992,2 52365  53.2141 151.7720 0001486  94.9581 265.1580 15.08845906 84002,2022-045AL,52365,6917.862,95.437,540.755,538.699,0
GENERATED VIA SPACETRACK.ORG API,18 SPCS,52365,STARLINK-3874,PAYLOAD,U,22045AL,2023-10-17 21:18:10,862208,15.08845906,0.0001486,53.2141,151.772,94.9581,265.158,0,999,8400,0.00019486,2.815e-05,0,4040140,0 STARLINK-3874,1 52365U 22045AL  23290.88762572  .00002815  00000-0  19486-3 0  9992,2 52365  53.2141 151.7720 0001486  94.9581 265.1580 15.08845906 84002,2022-045AL,52365,6917.862,95.437,540.755,538.699,0
GENERATED VIA SPACETRACK.ORG API,18 SPCS,52365,STARLINK-3874,PAYLOAD,U,22045AL,2023-10-18 21:08:57,941088,15.0884665,0.0001008,53.2142,147.3108,77.809,282.3015,0,999,8415,0.00022551,3.304e-05,0,4040428,0 STARLINK-3874,1 52365U 22045AL  23291.88122617  .00003304  00000-0  22551-3 0  9994,2 52365  53.2142 147.3108 0001008  77.8090 282.3015 15.08846650 84156,2022-045AL,52365,6917.86,95.437,540.422,539.028,0
GENERATED VIA SPACETRACK.ORG API,18 SPCS,52365,STARLINK-3874,PAYLOAD,U,22045AL,2023-10-18 21:08:57,941088,15.0884665,0.0001008,53.2142,147.3108,77.809,282.3015,0,999,8415,0.00022551,3.304e-05,0,4040456,0 STARLINK-3874,1 52365U 22045AL  23291.88122617  .00003304  00000-0  22551-3 0  9994,2 52365  53.2142 147.3108 0001008  77.8090 282.3015 15.08846650 84156,2022-045AL,52365,6917.86,95.437,540.422,539.028,0
GENERATED VIA SPACETRACK.ORG API,18 SPCS,52365,STARLINK-3874,PAYLOAD,U,22045AL,2023-10-19 00:19:44,23872,15.08849984,0.0001377,53.2148,146.7156,88.7562,271.3588,0,999,8417,0.00026025,3.857e-05,0,4042363,0 STARLINK-3874,1 52365U 22045AL  23292.01370398  .00003857  00000-0  26025-3 0  9994,2 52365  53.2148 146.7156 0001377  88.7562 271.3588 15.08849984 84170,2022-045AL,52365,6917.85,95.437,540.667,538.762,0
